H1 CPF 01  gfz 2022 07 08 00  6891 tandemx   
H2 1003001  6202 36605    2022 07 08 00 59 42 2022 07 13 00 00 42   120 1 1  0 0 0
H9
10 0 59770  79182.000000  0   -3062262.606   5773443.288  -2188493.449
10 0 59770  79302.000000  0   -2743462.382   5553198.286  -3024231.466
10 0 59770  79422.000000  0   -2381608.258   5230224.036  -3806892.421
10 0 59770  79542.000000  0   -1984803.432   4809564.329  -4522812.705
10 0 59770  79662.000000  0   -1561641.429   4298097.120  -5159528.672
10 0 59770  79782.000000  0   -1121022.755   3704412.817  -5705986.060
10 0 59770  79902.000000  0    -671970.079   3038661.902  -6152723.862
10 0 59770  80022.000000  0    -223445.792   2312373.984  -6492027.682
10 0 59770  80142.000000  0     215823.175   1538254.696  -6718050.580
10 0 59770  80262.000000  0     637510.152    729964.020  -6826904.314
10 0 59770  80382.000000  0    1033842.741    -98121.417  -6816719.246
10 0 59770  80502.000000  0    1397742.373   -931159.433  -6687672.347
10 0 59770  80622.000000  0    1722947.067  -1754101.578  -6441982.980
10 0 59770  80742.000000  0    2004117.182  -2551957.439  -6083879.255
10 0 59770  80862.000000  0    2236922.743  -3310061.947  -5619534.268
10 0 59770  80982.000000  0    2418111.124  -4014344.388  -5056971.396
10 0 59770  81102.000000  0    2545553.109  -4651591.135  -4405934.901
10 0 59770  81222.000000  0    2618266.275  -5209695.968  -3677731.752
10 0 59770  81342.000000  0    2636415.363  -5677897.375  -2885045.542
10 0 59770  81462.000000  0    2601289.505  -6046995.728  -2041721.724
10 0 59770  81582.000000  0    2515256.655  -6309544.956  -1162528.800
10 0 59770  81702.000000  0    2381694.713  -6460013.366   -262897.299
10 0 59770  81822.000000  0    2204900.236  -6494906.064    641357.182
10 0 59770  81942.000000  0    1989978.322  -6412848.644   1534318.565
10 0 59770  82062.000000  0    1742716.054  -6214628.836   2400260.592
10 0 59770  82182.000000  0    1469440.955  -5903192.191   3223932.932
10 0 59770  82302.000000  0    1176870.565  -5483595.123   3990836.448
10 0 59770  82422.000000  0     871955.821  -4962915.964   4687482.463
10 0 59770  82542.000000  0     561722.593  -4350128.158   5301632.057
10 0 59770  82662.000000  0     253114.307  -3655935.881   5822511.102
10 0 59770  82782.000000  0     -47158.723  -2892576.545   6240995.453
10 0 59770  82902.000000  0    -332761.445  -2073597.346   6549763.779
10 0 59770  83022.000000  0    -597864.420  -1213611.229   6743419.004
10 0 59770  83142.000000  0    -837260.377   -328034.362   6818578.183
10 0 59770  83262.000000  0   -1046465.159    567191.484   6773928.662
10 0 59770  83382.000000  0   -1221801.228   1455885.916   6610249.309
10 0 59770  83502.000000  0   -1360461.978   2321921.668   6330397.579
10 0 59770  83622.000000  0   -1460556.786   3149517.087   5939262.896
10 0 59770  83742.000000  0   -1521136.066   3923525.085   5443685.954
10 0 59770  83862.000000  0   -1542194.950   4629713.561   4852345.411
10 0 59770  83982.000000  0   -1524656.915   5255033.809   4175612.065
10 0 59770  84102.000000  0   -1470336.241   5787869.808   3425370.632
10 0 59770  84222.000000  0   -1381881.335   6218262.829   2614813.448
10 0 59770  84342.000000  0   -1262700.294   6538107.963   1758207.521
10 0 59770  84462.000000  0   -1116866.853   6741315.654    870638.684
10 0 59770  84582.000000  0    -949011.838   6823933.215    -32260.325
10 0 59770  84702.000000  0    -764202.513   6784225.927   -934592.973
10 0 59770  84822.000000  0    -567812.090   6622712.483  -1820489.939
10 0 59770  84942.000000  0    -365383.965   6342151.563  -2674397.321
10 0 59770  85062.000000  0    -162494.752   5947484.545  -3481354.152
10 0 59770  85182.000000  0      35381.404   5445737.487  -4227256.144
10 0 59770  85302.000000  0     223004.294   4845883.931  -4899101.106
10 0 59770  85422.000000  0     395491.501   4158672.369  -5485210.736
10 0 59770  85542.000000  0     548431.886   3396423.087  -5975425.962
10 0 59770  85662.000000  0     677985.719   2572798.721  -6361272.784
10 0 59770  85782.000000  0     780970.118   1702554.887  -6636096.894
10 0 59770  85902.000000  0     854928.657    801276.095  -6795167.390
10 0 59770  86022.000000  0     898183.554   -114900.146  -6835749.867
10 0 59770  86142.000000  0     909870.303  -1029567.098  -6757148.122
10 0 59770  86262.000000  0     889953.708  -1926335.409  -6560712.972
10 0 59770  86382.000000  0     839226.083  -2789117.814  -6249821.501
10 0 59771    102.000000  0     759287.399  -3602412.373  -5829827.977
10 0 59771    222.000000  0     652506.244  -4351579.975  -5307980.640
10 0 59771    342.000000  0     521964.254  -5023108.246  -4693307.078
10 0 59771    462.000000  0     371383.400  -5604860.317  -3996470.045
10 0 59771    582.000000  0     205037.323  -6086303.272  -3229592.306
10 0 59771    702.000000  0      27648.639  -6458709.713  -2406053.063
10 0 59771    822.000000  0    -155725.645  -6715329.300  -1540259.094
10 0 59771    942.000000  0    -339818.400  -6851524.288   -647392.050
10 0 59771   1062.000000  0    -519283.204  -6864863.818    256861.842
10 0 59771   1182.000000  0    -688828.518  -6755174.945   1156593.496
10 0 59771   1302.000000  0    -843351.988  -6524549.554   2035959.063
10 0 59771   1422.000000  0    -978071.238  -6177304.920   2879468.598
10 0 59771   1542.000000  0   -1088646.889  -5719898.808   3672268.138
10 0 59771   1662.000000  0   -1171294.856  -5160800.732   4400407.278
10 0 59771   1782.000000  0   -1222886.640  -4510325.613   5051086.556
10 0 59771   1902.000000  0   -1241033.618  -3780434.768   5612882.839
10 0 59771   2022.000000  0   -1224154.689  -2984505.854   6075948.733
10 0 59771   2142.000000  0   -1171524.399  -2137078.121   6432179.248
10 0 59771   2262.000000  0   -1083301.339  -1253582.396   6675346.298
10 0 59771   2382.000000  0    -960537.767   -350057.739   6801202.614
10 0 59771   2502.000000  0    -805169.983    557141.032   6807551.195
10 0 59771   2622.000000  0    -619987.973   1451638.895   6694281.618
10 0 59771   2742.000000  0    -408584.986   2317335.916   6463371.903
10 0 59771   2862.000000  0    -175288.388   3138696.819   6118855.930
10 0 59771   2982.000000  0      74926.722   3901030.732   5666757.399
10 0 59771   3102.000000  0     336539.798   4590757.296   5114989.848
10 0 59771   3222.000000  0     603602.387   5195654.203   4473224.710
10 0 59771   3342.000000  0     869867.838   5705082.110   3752725.498
10 0 59771   3462.000000  0    1128929.317   6110178.456   2966154.905
10 0 59771   3582.000000  0    1374368.298   6404026.866   2127354.647
10 0 59771   3702.000000  0    1599904.093   6581782.650   1251094.886
10 0 59771   3822.000000  0    1799543.081   6640758.651    352808.486
10 0 59771   3942.000000  0    1967723.862   6580466.803   -551688.899
10 0 59771   4062.000000  0    2099453.845   6402615.947  -1446485.282
10 0 59771   4182.000000  0    2190434.629   6111066.341  -2315859.813
10 0 59771   4302.000000  0    2237173.024   5711741.865  -3144565.645
10 0 59771   4422.000000  0    2237074.845   5212501.698  -3918102.245
10 0 59771   4542.000000  0    2188518.989   4622974.417  -4622970.335
10 0 59771   4662.000000  0    2090909.972   3954360.882  -5246903.816
10 0 59771   4782.000000  0    1944709.047   3219211.987  -5779075.754
10 0 59771   4902.000000  0    1751443.309   2431186.052  -6210277.067
10 0 59771   5022.000000  0    1513692.499   1604790.653  -6533064.298
10 0 59771   5142.000000  0    1235055.562    755115.881  -6741876.435
10 0 59771   5262.000000  0     920096.387   -102438.196  -6833121.763
10 0 59771   5382.000000  0     574269.035   -952435.867  -6805232.551
10 0 59771   5502.000000  0     203824.812  -1779676.907  -6658687.391
10 0 59771   5622.000000  0    -184297.128  -2569460.036  -6396003.806
10 0 59771   5742.000000  0    -582596.068  -3307839.186  -6021701.815
10 0 59771   5862.000000  0    -983150.368  -3981867.578  -5542233.590
10 0 59771   5982.000000  0   -1377769.856  -4579824.756  -4965883.340
10 0 59771   6102.000000  0   -1758158.981  -5091425.309  -4302636.246
10 0 59771   6222.000000  0   -2116087.683  -5508003.754  -3564015.945
10 0 59771   6342.000000  0   -2443566.135  -5822671.039  -2762892.749
10 0 59771   6462.000000  0   -2733019.594  -6030439.466  -1913265.316
10 0 59771   6582.000000  0   -2977459.665  -6128313.153  -1030018.198
10 0 59771   6702.000000  0   -3170647.618  -6115340.140   -128658.404
10 0 59771   6822.000000  0   -3307244.582  -5992622.878    774963.111
10 0 59771   6942.000000  0   -3382944.854  -5763287.402   1664938.245
10 0 59771   7062.000000  0   -3394588.894  -5432411.216   2525591.283
10 0 59771   7182.000000  0   -3340252.598  -5006911.396   3341763.522
10 0 59771   7302.000000  0   -3219310.850  -4495397.084   4099087.049
10 0 59771   7422.000000  0   -3032474.037  -3907989.621   4784242.308
10 0 59771   7542.000000  0   -2781797.089  -3256114.661   5385193.709
10 0 59771   7662.000000  0   -2470660.341  -2552272.506   5891399.394
10 0 59771   7782.000000  0   -2103723.276  -1809792.817   6293991.832
10 0 59771   7902.000000  0   -1686852.618  -1042578.403   6585929.117
10 0 59771   8022.000000  0   -1227024.992   -264840.525   6762112.438
10 0 59771   8142.000000  0    -732208.808    509165.022   6819467.084
10 0 59771   8262.000000  0    -211226.585   1265397.819   6756993.384
10 0 59771   8382.000000  0     326402.307   1990287.341   6575783.512
10 0 59771   8502.000000  0     870635.447   2670976.537   6279003.287
10 0 59771   8622.000000  0    1411094.141   3295549.765   5871839.925
10 0 59771   8742.000000  0    1937260.342   3853243.699   5361417.104
10 0 59771   8862.000000  0    2438681.334   4334637.501   4756676.707
10 0 59771   8982.000000  0    2905179.072   4731817.956   4068227.055
10 0 59771   9102.000000  0    3327057.398   5038514.774   3308160.686
10 0 59771   9222.000000  0    3695305.788   5250207.615   2489846.109
99
